[
  "TORO                    \r\n1 60530U 24149BQ  26195.45397698  .00000449  00000+0  44527-4 0  9990\r\n2 60530  97.6779 269.6131 0001152  97.2579 262.8774 14.96515726104037\r\n",
  "TORO3                   \r\n1 68481U 26067BT  26195.45937351  .00000157  00000+0  20863-4 0  9993\r\n2 68481  97.7686 153.4360 0001990 191.9123 168.2049 14.92166360 15799\r\n",
  "SATORO-T3               \r\n1 64589U 25135BP  26195.54866672  .00000959  00000+0  94320-4 0  9999\r\n2 64589  97.7738 309.8006 0003726 228.6682 131.4218 14.94435464 57997\r\n",
  "GEMINI-POLLUX           \r\n1 69000U 26100W   26195.61982521  .00000873  00000+0  90911-4 0  9992\r\n2 69000  97.7291  92.5837 0002118 109.9387 250.2061 14.92322610 10798\r\n",
  "FORMOSAT-2 (ROCSAT 2)   \r\n1 28254U 04018A   26195.53652025 -.00000268  00000+0 -14979-3 0  9995\r\n2 28254  98.8459 162.1793 0000830 207.3461 263.6861 14.01252265132588\r\n",
  "FORMOSAT-3 FM6          \r\n1 29047U 06011A   26195.56716861  .00000189  00000+0  86043-4 0  9995\r\n2 29047  71.9763 255.2219 0048705 192.5854 167.4072 14.31418441 58327\r\n",
  "FORMOSAT-3 FM1          \r\n1 29048U 06011B   26195.35151003  .00000171  00000+0  79533-4 0  9991\r\n2 29048  71.9650 164.0509 0041350 155.8005 204.5088 14.31407381 60662\r\n",
  "FORMOSAT-3 FM5          \r\n1 29049U 06011C   26195.61111391  .00000176  00000+0  81513-4 0  9993\r\n2 29049  72.0195 347.8027 0033345 161.8797 198.3538 14.31424152 56597\r\n",
  "FORMOSAT-3 FM3          \r\n1 29050U 06011D   26195.59754740  .00000518  00000+0  10030-3 0  9998\r\n2 29050  72.0122 252.9204 0044811 236.4904 123.1968 14.67014693 80393\r\n",
  "FORMOSAT-3 FM4          \r\n1 29051U 06011E   26195.56873464  .00000152  00000+0  71166-4 0  9993\r\n2 29051  72.0024 245.3814 0064730  41.7341 318.8708 14.31557320 59180\r\n",
  "FORMOSAT-3 FM2          \r\n1 29052U 06011F   26195.56618370  .00000189  00000+0  85552-4 0  9991\r\n2 29052  72.0338 326.2867 0037361 113.7333 246.7732 14.31638466 56709\r\n",
  "PACE                    \r\n1 40022U 14033N   26195.54656285  .00002637  00000+0  16188-3 0  9997\r\n2 40022  98.1245 202.1031 0007841 119.7361 240.4649 15.11068542657163\r\n",
  "FORMOSAT-5              \r\n1 42920U 17049A   26195.56915896  .00000040  00000+0  21229-4 0  9993\r\n2 42920  98.2247 270.2696 0011377   5.7754 354.3571 14.50907716470649\r\n",
  "FORMOSAT 7-3            \r\n1 44343U 19036E   26195.54275827  .00002644  00000+0  13790-3 0  9998\r\n2 44343  23.9999 350.2378 0000173 206.3955 153.6540 15.09991883387386\r\n",
  "FORMOSAT 7-1            \r\n1 44349U 19036L   26195.11697589  .00001323  00000+0  87353-4 0  9990\r\n2 44349  23.9965 210.8268 0000992 119.0501 241.0100 14.96609694388690\r\n",
  "FORMOSAT 7-4            \r\n1 44350U 19036M   26195.53960159  .00001372  00000+0  91577-4 0  9991\r\n2 44350  23.9978 270.0878 0001207 134.1754 225.8846 14.96608631388179\r\n",
  "FORMOSAT 7-2            \r\n1 44351U 19036N   26195.56196774  .00001502  00000+0  10275-3 0  9999\r\n2 44351  23.9992 324.2509 0000724 126.1449 233.9119 14.96607917387699\r\n",
  "FORMOSAT 7-6            \r\n1 44353U 19036Q   26195.56155076  .00001427  00000+0  96307-4 0  9998\r\n2 44353  23.9966 145.0607 0001306  68.3395 291.7245 14.96611257385922\r\n",
  "FORMOSAT 7-5            \r\n1 44358U 19036V   26195.00559900  .00001521  00000+0  10448-3 0  9992\r\n2 44358  23.9985  87.5620 0000433 125.4285 234.6256 14.96589152386372\r\n",
  "FORMOSAT-7R (TRITON)    \r\n1 58017U 23155B   26195.48327675  .00000662  00000+0  72306-4 0  9997\r\n2 58017  97.8353 276.6860 0001633  54.3114 305.8256 14.91193139150291\r\n",
  "NIGHTJAR                \r\n1 60535U 24149BV  26195.49240243  .00002234  00000+0  18840-3 0  9994\r\n2 60535  97.6838 271.8161 0002580  97.7079 262.4437 14.99166206146960\r\n",
  "IRIS-F3                 \r\n1 62619U 25009L   26195.18117702  .00005390  00000+0  20389-3 0  9991\r\n2 62619  97.4042 275.8166 0005600 212.6907 147.3986 15.27362838 82941\r\n",
  "IRIS-F2                 \r\n1 62684U 25009CD  26195.52604366  .00007698  00000+0  28990-3 0  9997\r\n2 62684  97.3893 275.0332 0004356 239.6146 120.4663 15.27371062140638\r\n",
  "FORMOSAT-8A             \r\n1 66666U 25276A   26195.20942157  .00000933  00000+0  78206-4 0  9996\r\n2 66666  97.6547 269.0456 0005467 132.9050 227.2634 15.00750458 34114\r\n",
  "LILIUM-2                \r\n1 66679U 25276P   26195.13354318  .00001526  00000+0  78105-4 0  9995\r\n2 66679  97.4145 267.6376 0004371 272.7954  87.2779 15.18095480 34484\r\n",
  "BLACK KITE-1            \r\n1 66741U 25276CD  26195.48407086  .00004681  00000+0  21438-3 0  9995\r\n2 66741  97.4239 268.8074 0004247 243.0056 117.0747 15.20971081 31872\r\n",
  "T.MICROSAT-1            \r\n1 66766U 25276DE  26195.51062422  .00003059  00000+0  14069-3 0  9997\r\n2 66766  97.4158 268.8141 0002240 100.5429 259.6059 15.21093346 34597\r\n",
  "LILIUM-3                \r\n1 66770U 25276DJ  26195.15722556  .00001380  00000+0  67947-4 0  9992\r\n2 66770  97.4237 268.4704 0002965 130.9624 229.1867 15.19637910 34529\r\n",
  "T.MICROSAT-2            \r\n1 68433U 26067T   26195.42524904  .00002958  00000+0  15029-3 0  9991\r\n2 68433  97.4582 153.3875 0004913 348.3891  11.7229 15.17645179 16067\r\n",
  "PARUS-6U1               \r\n1 68456U 26067AS  26195.41873867  .00003174  00000+0  16039-3 0  9993\r\n2 68456  97.4567 153.3707 0004815 351.5357   8.5795 15.17789514 16067\r\n",
  "BLACK KITE-2            \r\n1 68474U 26067BL  26195.43147845  .00001485  00000+0  14944-3 0  9991\r\n2 68474  97.7563 153.3207 0003242 124.1004 236.0524 14.92697681 15799\r\n",
  "PEARL-1B                \r\n1 68980U 26100A   26195.63330703  .00000881  00000+0  95410-4 0  9997\r\n2 68980  97.7333  92.4430 0008751  62.2530 297.9575 14.90664506 10776\r\n",
  "PEARL-1A                \r\n1 68990U 26100L   26195.61315928  .00000737  00000+0  80034-4 0  9994\r\n2 68990  97.7278  92.4281 0006906  76.5964 283.6024 14.91056865 10784\r\n"
]